#dP2021  7 17 12  0  0.00000000      96 __u+U ITR00 EXT  IAC
## 2166 561600.00000000   900.00000000 59412 0.5000000000000
+  116   C06C07C08C09C10C11C12C13C14C16C19C20C21C22C23C24C25
+        C26C27C28C29C30C32C33C34C35C36C37C38C39C40C41C42C43
+        C44C45C46E01E02E03E04E05E07E08E09E11E12E13E14E15E18
+        E19E21E24E25E26E27E30E31E33E36G01G02G03G04G05G06G07
+        G08G09G10G11G12G13G14G15G16G17G18G19G21G22G23G24G25
+        G26G27G28G29G30G31G32J01J02J03R01R02R03R04R05R07R08
+        R09R11R12R13R14R15R16R17R18R19R20R21R22R24  0  0  0
++        11  0  9  9 10  8  9  9  8 10  9  7  9  8  9  8  8
++         7  8  9  9  9  9  8  7  8  8 10  9  9 10  8  8  8
++         8  9 10  7  8  9  8  8  8  9  7  9  7  9  8  7  8
++         7  8  8  8  9  7  8  7  8  8  7  7  7  7  8  7  8
++         7  8  8  8  7  8  9  7  9  8  8  8  7  8  9  7  8
++         9  8  8  8  8  7  7 11 10  9  8  9  8  9  9  9  8
++        10 10  8  7  8  8 10  9  8  8  9  8 10  9  0  0  0
%c M  cc GPS ccc cccc cccc cccc cccc ccccc ccccc ccccc ccccc
%c cc cc ccc ccc cccc cccc cccc cccc ccccc ccccc ccccc ccccc
%f  0.0000000  0.000000000  0.00000000000  0.000000000000000
%f  0.0000000  0.000000000  0.00000000000  0.000000000000000
%i    0    0    0    0      0      0      0      0         0
%i    0    0    0    0      0      0      0      0         0
/* IAC                                ULTRA-RAPID PREDICTION
/* S/V CLOCKS ARE ALIGNED TO GNSS TIME                      
/* G:C1WC2W R:C1PC2P E:C1XC5X C:C2IC6I J:C1CC2S             
/* PCV:IGS14_2163 OL/AL:FES2004  NONE     YN ORB:CoN CLK:CoN
*  2021 07 17 15  0  0.00000000
PC06 -12710.204653  21805.651941  34226.430249    636.364867
PC07 -21910.519614  34965.244647  -9655.355821    111.589753
PC08  -5859.485197  34498.259827 -23114.494951   -905.757310
PC09   3455.949324  26600.300586  32942.606132    367.067498
PC10 -11334.373074  35704.747856 -19562.314076    -17.838841
PC11 -25170.685762 -12056.052365   1162.764772    463.038661
PC12 -13000.188948 -17864.637507  17089.049180    808.883474
PC13   2417.655510  40220.802237 -11885.344367    339.978238
PC14 -18327.739350  -3979.476556 -20660.269867    798.703500
PC16 -10412.658119  22017.061284  34544.539950   -912.980689
PC19  23082.498907  -4790.786100  14940.120175    912.448275
PC20  11940.054393  10704.389626  22850.238426   -842.561354
PC21   6961.217677 -20580.562131 -17482.112315   -935.907106
PC22  21214.944375 -17996.475111  -1949.995159   -948.386920
PC23 -11539.792518  17015.764980  18883.292110   -968.732371
PC24 -11508.049581 -22352.852062  12132.552276   -943.729545
PC25 -16524.014482  -2604.772830  22337.848647   -884.473037
PC26  -1288.718562 -27623.106227  -3883.181704    877.491632
PC27   2907.616829  17506.162026 -21563.076260    565.864662
PC28 -16541.137474   8488.768320 -20815.639798    -49.520105
PC29  26404.417262   4472.480598   7832.562294    420.753272
PC30  20777.038617  15650.985488 -10139.181807    474.377969
PC32  -6834.833596  20672.810487  17477.312893   -924.979128
PC33 -23063.069196   4883.275307 -14945.043947   -944.091948
PC34 -21260.269667 -15405.927201   9413.210794   -626.017093
PC35  16613.806404  -8851.259887  20599.780648   -182.932495
PC36  16447.383462   3419.858776 -22251.642328   -733.695113
PC37     -1.614173  27487.546918   4793.752253   -864.531946
PC38  -5818.899187  35865.182125 -21250.894926    162.343948
PC39  -8305.236438  22767.277515  34515.430860     32.454445
PC40 -19132.379666  32391.215277 -19166.293778    181.420932
PC41 -21294.742499  17961.346663   1689.600211   -961.481844
PC42 -11305.204581 -11284.407915 -22840.627716   -920.535015
PC43 -26462.456993  -4928.458251  -7336.819540   -825.543716
PC44  -3203.249082 -17444.223233  21524.597160    294.099678
PC45  11316.123566 -17184.092705 -18848.129457    495.939588
PC46  11981.376236  21538.812599 -13044.199265    174.789068
PE01 -18195.575708  16147.075978  16869.843058  -1152.046201
PE02  18168.429041 -16287.667525 -16760.155733    233.544879
PE03  26921.613027  -9862.929941  -7319.863819   -453.660238
PE04 -11128.860839  17227.375675  21354.300480   -815.288367
PE05  27165.107669   3419.116238  11247.480408   -264.484690
PE07 -11592.925127 -14536.926560 -23025.415626   -562.762468
PE08  10679.170324 -17190.323546 -21591.300025   5968.887698
PE09  11795.881755  14292.934260  23083.940527   5597.354072
PE11  15843.047432  24398.118394  -5518.439718   5707.227581
PE12   -837.356577  20578.607530 -21273.347443   5106.525108
PE13 -15652.388350 -24409.082587   5938.440979    419.136776
PE14 -14068.000175  18129.807233 -23143.509263  -1503.439901
PE15    696.916265 -20543.942910  21296.761049    802.999629
PE18   7823.211629 -13641.957357  17292.269752  -1647.817792
PE19 -27885.456495   8455.950328   5218.601740    329.145376
PE21 -16126.197863  -4059.943187  24491.546832   -676.755028
PE24   3963.495192  23426.243169 -17649.516385  -1012.846380
PE25  16039.361942   4296.629610 -24493.305837   -540.289121
PE26 -22762.467404 -13205.283625 -13562.388555   1568.696285
PE27  -4683.261581 -22820.168346  18271.406039    -77.667470
PE30  10227.396498 -27780.302993    322.063538   2776.668091
PE31  -9443.646831  28022.925222  -1332.283443   -483.357698
PE33 -16592.995714   4596.075333 -24079.501530   -467.561610
PE36  22744.258195  13906.047291  12864.938406   -235.686988
PG01  17742.025040   6938.676835  18383.275709    625.470443
PG02 -13628.391303 -22725.053585   1807.025141   -620.208427
PG03  17440.891045  -3014.228929  19672.808953   -223.471456
PG04  26577.194012    754.810951   -593.163978   -202.529615
PG05 -12271.374157  -9464.135486 -21723.545729    -48.195903
PG06  -4924.955510 -23679.603287  10959.439808     41.465206
PG07  12539.346275  -8761.240044 -21327.969422    204.503085
PG08  23919.326771   6626.604853  -9882.350632    -29.136943
PG09  22763.838666  -8072.765767 -11138.318631   -355.806218
PG10 -11074.815182  23720.899440   3613.904407   -163.870732
PG11 -11315.362524 -24025.272938    522.791803     17.734323
PG12 -17323.571467   1353.697333  19796.809829    -69.902019
PG13 -17646.160071 -13074.776239 -15173.653282    158.907217
PG14  11976.149466 -23364.531341   3862.401039     45.199324
PG15 -24587.051838  -4678.351178  -9763.362341   -134.893201
PG16   6377.892442  15389.564292 -20822.468732   -358.593832
PG17  10812.807547 -13168.273655  20803.391702    475.196906
PG18 -10405.367198  11765.199403 -21420.723279    340.311509
PG19    791.571825 -14656.252162  21856.748108     27.510015
PG21  19833.273760  12827.172706  13341.124958    131.809835
PG22  14868.651015   5539.476695  21475.863835   -561.317456
PG23 -16746.409116  19075.342623  -7737.769203     83.351516
PG24 -19715.167713 -10507.917909  14407.946279    177.527638
PG25 -18512.522758  13133.254500  13305.752169    175.100794
PG26   -948.893723  22746.009615 -13507.415081    111.672938
PG27  15819.566959  12235.440146 -17840.439326   -164.292511
PG28   8159.777260 -23364.956207  10441.034537    536.262746
PG29 -24110.126257   4787.699634 -10185.745792   -381.644826
PG30   3496.858644 -19983.336456 -16951.758009   -451.826853
PG31   5682.602996  24088.839262   8882.439770   -129.147305
PG32  -6964.192861  14780.467883  21023.949571     13.563091
PJ01 -30894.045789  27799.755597  12446.496088   -417.701305
PJ02 -30291.008935  25898.480163  18771.623516     -0.850322
PJ03 -26218.527731  17472.110491 -23446.153793     -0.218135
PR01 -10452.809127  15185.397941  17640.244354     82.437628
PR02   9933.194445   6911.096679  22505.215643    486.393254
PR03  21882.898405  -4444.762558  12422.215213     39.666563
PR04  21415.377850 -13106.435453  -4491.013605     96.171108
PR05   9139.041605 -14457.827556 -18920.369526     75.491276
PR07 -22068.085110   4873.493109 -11747.608377    -42.007047
PR08 -21303.931127  13223.795658   4684.369295    -60.005693
PR09  -6837.291885 -19093.765557  15442.805677      3.379856
PR11  -8953.980131  16143.782751  17625.380613     44.480703
PR12  -1913.845658  25396.299843   1316.024332    246.059437
PR13   6342.870354  19707.523790 -14914.744546    -57.854548
PR14  10998.422536   1792.354775 -22928.659187     66.578050
PR15   9097.671671 -16507.074025 -17159.970890    102.632054
PR16    765.995475 -25564.012216   -158.330033    -18.052193
PR17  21694.481458   8862.092791  10022.574161    441.854603
PR18  13272.483416  -2804.426506  21619.541976     83.741059
PR19  -1076.594247 -12750.669663  22060.194029   -151.872500
PR20 -17404.693387 -16748.638316   8141.885000    -52.635062
PR21 -21425.174983  -8212.823305 -11184.759557   -224.574543
PR22 -12351.057392   3524.196484 -22041.460093   -123.131344
PR24  18014.767157  16471.816496  -7363.907345     50.818846
EOF
